NORAD_CAT_ID,OBJECT_NAME,OBJECT_TYPE,EPOCH,MEAN_MOTION,ECCENTRICITY,INCLINATION,RA_OF_ASC_NODE,ARG_OF_PERICENTER,MEAN_ANOMALY,BSTAR,MEAN_MOTION_DOT,MEAN_MOTION_DDOT,TLE_LINE0,TLE_LINE1,TLE_LINE2,SEMIMAJOR_AXIS,PERIOD,APOGEE,PERIGEE,DECAYED
53729.0,STARLINK-4651,PAYLOAD,2024-03-10 14:18:11,15.08856368,0.0001592,53.2147,287.261,83.1087,277.0086,-0.00034666,-5.803e-05,0.0,0 STARLINK-4651,1 53729U 22107AF  24070.59596603 -.00005803  00000-0 -34666-3 0  9990,2 53729  53.2147 287.2610 0001592  83.1087 277.0086 15.08856368 84518,6917.83,95.437,540.797,538.594,0.0
53729.0,STARLINK-4651,PAYLOAD,2024-03-10 20:39:44,15.08838727,0.0001508,53.2158,286.0726,85.0146,275.1018,0.00011203,1.495e-05,0.0,0 STARLINK-4651,1 53729U 22107AF  24070.86093650  .00001495  00000-0  11203-3 0  9997,2 53729  53.2158 286.0726 0001508  85.0146 275.1018 15.08838727 84556,6917.884,95.438,540.792,538.706,0.0
53729.0,STARLINK-4651,PAYLOAD,2024-03-11 20:30:31,15.08846364,0.0001411,53.2151,281.6118,85.7557,274.3597,0.00017409,2.484e-05,0.0,0 STARLINK-4651,1 53729U 22107AF  24071.85453181  .00002484  00000-0  17409-3 0  9999,2 53729  53.2151 281.6118 0001411  85.7557 274.3597 15.08846364 84077,6917.861,95.437,540.702,538.75,0.0
53729.0,STARLINK-4651,PAYLOAD,2024-03-12 20:21:17,15.08858379,0.0001365,53.2149,277.1503,88.9252,271.1896,0.00027808,4.143e-05,0.0,0 STARLINK-4651,1 53729U 22107AF  24072.84811908  .00004143  00000-0  27808-3 0  9992,2 53729  53.2149 277.1503 0001365  88.9252 271.1896 15.08858379 84859,6917.824,95.436,540.633,538.745,0.0
53729.0,STARLINK-4651,PAYLOAD,2024-03-12 23:32:03,15.08861063,0.0001382,53.2149,276.5552,88.4662,271.6489,0.00028738,4.291e-05,0.0,0 STARLINK-4651,1 53729U 22107AF  24072.98059635  .00004291  00000-0  28738-3 0  9995,2 53729  53.2149 276.5552 0001382  88.4662 271.6489 15.08861063 84245,6917.816,95.436,540.637,538.725,0.0
53729.0,STARLINK-4651,PAYLOAD,2024-03-13 13:50:33,15.08832906,0.0001026,53.2145,273.8778,91.1913,268.9196,-0.00011123,-2.057e-05,0.0,0 STARLINK-4651,1 53729U 22107AF  24073.57677187 -.00002057  00000-0 -11123-3 0  9999,2 53729  53.2145 273.8778 0001026  91.1913 268.9196 15.08832906 84334,6917.902,95.438,540.477,539.057,0.0
53729.0,STARLINK-4651,PAYLOAD,2024-03-14 05:44:24,15.08831927,0.0001391,53.2114,270.9048,87.5044,272.6107,-0.00014693,-2.625e-05,0.0,0 STARLINK-4651,1 53729U 22107AF  24074.23917269 -.00002625  00000-0 -14693-3 0  9997,2 53729  53.2114 270.9048 0001391  87.5044 272.6107 15.08831927 85064,6917.905,95.438,540.732,538.808,0.0
53729.0,STARLINK-4651,PAYLOAD,2024-03-14 13:41:19,15.08844187,0.0001185,53.2109,269.4173,83.9324,276.1804,-0.00043503,-7.205e-05,0.0,0 STARLINK-4651,1 53729U 22107AF  24074.57036959 -.00007205  00000-0 -43503-3 0  9993,2 53729  53.2109 269.4173 0001185  83.9324 276.1804 15.08844187 84482,6917.868,95.437,540.552,538.913,0.0
53729.0,STARLINK-4651,PAYLOAD,2024-03-14 21:38:15,15.08854725,0.0001288,53.2159,267.9315,101.7096,258.4041,-0.00030082,-5.074e-05,0.0,0 STARLINK-4651,1 53729U 22107AF  24074.90156336 -.00005074  00000-0 -30082-3 0  9992,2 53729  53.2159 267.9315 0001288 101.7096 258.4041 15.08854725 85168,6917.835,95.437,540.591,538.809,0.0
53729.0,STARLINK-4651,PAYLOAD,2024-03-15 21:29:03,15.08838162,0.0001388,53.2156,263.4713,94.8403,265.2748,0.00022033,3.22e-05,0.0,0 STARLINK-4651,1 53729U 22107AF  24075.89517764  .00003220  00000-0  22033-3 0  9993,2 53729  53.2156 263.4713 0001388  94.8403 265.2748 15.08838162 85317,6917.886,95.438,540.711,538.791,0.0
53729.0,STARLINK-4651,PAYLOAD,2024-03-16 11:47:32,15.08830918,0.0001305,53.2154,260.7942,92.1851,267.9291,9.331e-05,1.197e-05,0.0,0 STARLINK-4651,1 53729U 22107AF  24076.49134265  .00001197  00000-0  93310-4 0  9999,2 53729  53.2154 260.7942 0001305  92.1851 267.9291 15.08830918 84778,6917.908,95.438,540.676,538.87,0.0
53729.0,STARLINK-4651,PAYLOAD,2024-03-16 19:44:27,15.08837072,0.0001434,53.2158,259.3077,91.3017,268.814,5.1808e-05,5.37e-06,0.0,0 STARLINK-4651,1 53729U 22107AF  24076.82254188  .00000537  00000-0  51808-4 0  9996,2 53729  53.2158 259.3077 0001434  91.3017 268.8140 15.08837072 85450,6917.889,95.438,540.746,538.762,0.0
53729.0,STARLINK-4651,PAYLOAD,2024-03-17 21:10:37,15.08845187,0.0001513,53.2159,254.5499,82.6033,277.5131,0.00026844,3.987e-05,0.0,0 STARLINK-4651,1 53729U 22107AF  24077.88238088  .00003987  00000-0  26844-3 0  9997,2 53729  53.2159 254.5499 0001513  82.6033 277.5131 15.08845187 84985,6917.865,95.437,540.776,538.683,0.0
53729.0,STARLINK-4651,PAYLOAD,2024-03-18 11:29:06,15.08839476,0.0001499,53.2158,251.8721,96.0466,264.0697,0.00010106,1.321e-05,0.0,0 STARLINK-4651,1 53729U 22107AF  24078.47854405  .00001321  00000-0  10106-3 0  9994,2 53729  53.2158 251.8721 0001499  96.0466 264.0697 15.08839476 85077,6917.882,95.438,540.784,538.71,0.0
53729.0,STARLINK-4651,PAYLOAD,2024-03-19 11:19:52,15.08853749,0.0001307,53.2164,247.4087,121.1875,238.9245,0.00012483,1.7e-05,0.0,0 STARLINK-4651,1 53729U 22107AF  24079.47213551  .00001700  00000-0  12483-3 0  9997,2 53729  53.2164 247.4087 0001307 121.1875 238.9245 15.08853749 85856,6917.838,95.437,540.608,538.799,0.0
53729.0,STARLINK-4651,PAYLOAD,2024-03-19 20:52:10,15.08862532,0.0001335,53.2161,245.6269,101.2511,258.8631,0.00031691,4.762e-05,0.0,0 STARLINK-4651,1 53729U 22107AF  24079.86957053  .00004762  00000-0  31691-3 0  9995,2 53729  53.2161 245.6269 0001335 101.2511 258.8631 15.08862532 85289,6917.812,95.436,540.6,538.753,0.0
53729.0,STARLINK-4651,PAYLOAD,2024-03-20 11:10:40,15.08832759,0.0001018,53.2163,242.9532,92.7374,267.3735,-6.4618e-05,-1.316e-05,0.0,0 STARLINK-4651,1 53729U 22107AF  24080.46574348 -.00001316  00000-0 -64618-4 0  9995,2 53729  53.2163 242.9532 0001018  92.7374 267.3735 15.08832759 85371,6917.903,95.438,540.472,539.063,0.0
53729.0,STARLINK-4651,PAYLOAD,2024-03-20 14:21:26,15.08834389,0.000117,53.2161,242.3579,101.2198,258.8925,-2.7712e-05,-7.29e-06,0.0,0 STARLINK-4651,1 53729U 22107AF  24080.59822379 -.00000729  00000-0 -27712-4 0  9990,2 53729  53.2161 242.3579 0001170 101.2198 258.8925 15.08834389 86023,6917.898,95.438,540.572,538.953,0.0
53729.0,STARLINK-4651,PAYLOAD,2024-03-20 17:32:12,15.08836237,0.0001257,53.216,241.7628,106.2137,253.8994,1.3479e-06,-2.66e-06,0.0,0 STARLINK-4651,1 53729U 22107AF  24080.73070274 -.00000266  00000-0  13479-5 0  9996,2 53729  53.2160 241.7628 0001257 106.2137 253.8994 15.08836237 86041,6917.892,95.438,540.626,538.887,0.0
53729.0,STARLINK-4651,PAYLOAD,2024-03-21 14:12:13,15.08845371,0.0001062,53.2158,237.8944,85.4883,274.6231,0.00060472,9.351e-05,0.0,0 STARLINK-4651,1 53729U 22107AF  24081.59182533  .00009351  00000-0  60472-3 0  9999,2 53729  53.2158 237.8944 0001062  85.4883 274.6231 15.08845371 86173,6917.864,95.437,540.464,538.994,0.0
53729.0,STARLINK-4651,PAYLOAD,2024-03-21 17:22:59,15.08855074,0.0001174,53.2156,237.304,93.1697,266.9429,0.0009069,0.00014181,0.0,0 STARLINK-4651,1 53729U 22107AF  24081.72430344  .00014181  00000-0  90690-3 0  9992,2 53729  53.2156 237.3040 0001174  93.1697 266.9429 15.08855074 85562,6917.834,95.437,540.511,538.887,0.0
53729.0,STARLINK-4651,PAYLOAD,2024-03-22 14:03:00,15.08854302,0.0001354,53.2149,233.4411,105.3686,254.7455,0.00023059,3.385e-05,0.0,0 STARLINK-4651,1 53729U 22107AF  24082.58541862  .00003385  00000-0  23059-3 0  9994,2 53729  53.2149 233.4411 0001354 105.3686 254.7455 15.08854302 86329,6917.837,95.437,540.638,538.765,0.0
53729.0,STARLINK-4651,PAYLOAD,2024-03-22 18:49:09,15.08862576,0.0001296,53.2165,232.5464,93.0078,267.1063,0.00054413,8.388e-05,0.0,0 STARLINK-4651,1 53729U 22107AF  24082.78413521  .00008388  00000-0  54413-3 0  9992,2 53729  53.2165 232.5464 0001296  93.0078 267.1063 15.08862576 85726,6917.811,95.436,540.573,538.78,0.0
53729.0,STARLINK-4651,PAYLOAD,2024-03-23 09:07:37,15.08841154,0.0001659,53.2157,229.8726,90.2804,269.8378,-8.0469e-05,-1.569e-05,0.0,0 STARLINK-4651,1 53729U 22107AF  24083.38029897 -.00001569  00000-0 -80469-4 0  9995,2 53729  53.2157 229.8726 0001659  90.2804 269.8378 15.08841154 85813,6917.877,95.437,540.89,538.594,0.0
53729.0,STARLINK-4651,PAYLOAD,2024-03-23 18:39:56,15.08843928,0.0001292,53.2154,228.0838,81.6937,278.4201,4.852e-05,4.84e-06,0.0,0 STARLINK-4651,1 53729U 22107AF  24083.77773940  .00000484  00000-0  48520-4 0  9998,2 53729  53.2154 228.0838 0001292  81.6937 278.4201 15.08843928 86508,6917.868,95.437,540.627,538.84,0.0
53729.0,STARLINK-4651,PAYLOAD,2024-03-24 13:44:34,15.08841109,0.0001642,53.2166,224.5154,110.8319,249.285,8.4124e-05,1.051e-05,0.0,0 STARLINK-4651,1 53729U 22107AF  24084.57262485  .00001051  00000-0  84124-4 0  9995,2 53729  53.2166 224.5154 0001642 110.8319 249.2850 15.08841109 85998,6917.877,95.437,540.878,538.606,0.0
53729.0,STARLINK-4651,PAYLOAD,2024-03-24 16:55:21,15.08839885,0.0001684,53.2167,223.9246,74.2218,285.896,0.0003801,5.766e-05,0.0,0 STARLINK-4651,1 53729U 22107AF  24084.70511132  .00005766  00000-0  38010-3 0  9995,2 53729  53.2167 223.9246 0001684  74.2218 285.8960 15.08839885 86640,6917.881,95.438,540.911,538.581,0.0
53729.0,STARLINK-4651,PAYLOAD,2024-03-25 02:27:36,15.08932836,9.42e-05,53.2167,222.1353,118.1362,241.9725,0.0023121,0.00036795,0.0,0 STARLINK-4651,1 53729U 22107AF  24085.10250883  .00036795  00000-0  23121-2 0  9995,2 53729  53.2167 222.1353 0000942 118.1362 241.9725 15.08932836 86073,6917.597,95.432,540.113,538.81,0.0
53729.0,STARLINK-4651,PAYLOAD,2024-03-25 13:35:20,15.08835869,0.0001548,53.2168,220.0522,41.6283,318.4826,-0.00053987,-8.869e-05,0.0,0 STARLINK-4651,1 53729U 22107AF  24085.56621160 -.00008869  00000-0 -53987-3 0  9992,2 53729  53.2168 220.0522 0001548  41.6283 318.4826 15.08835869 86142,6917.893,95.438,540.829,538.687,0.0
53729.0,STARLINK-4651,PAYLOAD,2024-03-25 15:10:43,15.08825183,0.0001315,53.217,219.7561,93.4739,266.6403,-0.00099656,-0.00016107,0.0,0 STARLINK-4651,1 53729U 22107AF  24085.63245084 -.00016107  00000-0 -99656-3 0  9994,2 53729  53.2170 219.7561 0001315  93.4739 266.6403 15.08825183 86789,6917.926,95.438,540.7,538.881,0.0
